sat19230
1 19230U 78100Z   20046.56241177  .00000037  00000-0  35306-3 0  9996
2 19230  82.5305 236.8838 0016458 206.9657 210.2114 11.98622406389456
